{
  "type": "FeatureCollection",
  "features": [
    {
      "type": "Feature",
      "properties": {
        "norad_id": 33939,
        "name": "COSMOS 2251 DEB",
        "group": "cosmos-2251-debris",
        "lat": -61.516782498020184,
        "lon": 60.068301024884754,
        "alt_km": 577.977365458737,
        "timestamp": "2025-12-07T03:52:32.895607+00:00",
        "meta_object_name": "COSMOS 2251 DEB",
        "meta_object_id": "1993-036EU",
        "meta_epoch": "2025-12-06T13:45:23.177088",
        "meta_mean_motion": 14.99148851,
        "meta_eccentricity": 0.00029263,
        "meta_inclination": 74.0076,
        "meta_ra_of_asc_node": 93.1739,
        "meta_arg_of_pericenter": 93.6162,
        "meta_mean_anomaly": 266.5359,
        "meta_ephemeris_type": 0,
        "meta_classification_type": "U",
        "meta_norad_cat_id": 33939,
        "meta_element_set_no": 999,
        "meta_rev_at_epoch": 88660,
        "meta_bstar": 0.0058096473,
        "meta_mean_motion_dot": 0.00071385,
        "meta_mean_motion_ddot": 0,
        "tle_line1": "1 33939U 93036EU  25340.57318492  .00071385  00000+0  58096-2 0  9994",
        "tle_line2": "2 33939  74.0076  93.1739 0002926  93.6162 266.5359 14.99148851886605"
      },
      "geometry": {
        "type": "Point",
        "coordinates": [
          60.068301024884754,
          -61.516782498020184
        ]
      }
    },
    {
      "type": "Feature",
      "properties": {
        "norad_id": 33940,
        "name": "COSMOS 2251 DEB",
        "group": "cosmos-2251-debris",
        "lat": 16.29956419198117,
        "lon": -30.683103488981356,
        "alt_km": 694.8788824905478,
        "timestamp": "2025-12-07T03:52:32.895618+00:00",
        "meta_object_name": "COSMOS 2251 DEB",
        "meta_object_id": "1993-036EV",
        "meta_epoch": "2025-12-06T14:16:39.389376",
        "meta_mean_motion": 14.58701702,
        "meta_eccentricity": 0.00115886,
        "meta_inclination": 74.0388,
        "meta_ra_of_asc_node": 155.1958,
        "meta_arg_of_pericenter": 234.576,
        "meta_mean_anomaly": 194.323,
        "meta_ephemeris_type": 0,
        "meta_classification_type": "U",
        "meta_norad_cat_id": 33940,
        "meta_element_set_no": 999,
        "meta_rev_at_epoch": 88504,
        "meta_bstar": 0.0018280749,
        "meta_mean_motion_dot": 8.517e-05,
        "meta_mean_motion_ddot": 0,
        "tle_line1": "1 33940U 93036EV  25340.59490034  .00008517  00000+0  18281-2 0  9990",
        "tle_line2": "2 33940  74.0388 155.1958 0011588 234.5760 194.3230 14.58701702885047"
      },
      "geometry": {
        "type": "Point",
        "coordinates": [
          -30.683103488981356,
          16.29956419198117
        ]
      }
    },
    {
      "type": "Feature",
      "properties": {
        "norad_id": 33942,
        "name": "COSMOS 2251 DEB",
        "group": "cosmos-2251-debris",
        "lat": 53.80198578162869,
        "lon": -51.87258170555102,
        "alt_km": 750.0954011815556,
        "timestamp": "2025-12-07T03:52:32.895628+00:00",
        "meta_object_name": "COSMOS 2251 DEB",
        "meta_object_id": "1993-036EX",
        "meta_epoch": "2025-12-06T13:09:09.152640",
        "meta_mean_motion": 14.37974069,
        "meta_eccentricity": 0.00200368,
        "meta_inclination": 74.0362,
        "meta_ra_of_asc_node": 286.2316,
        "meta_arg_of_pericenter": 10.8302,
        "meta_mean_anomaly": 111.6611,
        "meta_ephemeris_type": 0,
        "meta_classification_type": "U",
        "meta_norad_cat_id": 33942,
        "meta_element_set_no": 999,
        "meta_rev_at_epoch": 88045,
        "meta_bstar": 0.00046064709,
        "meta_mean_motion_dot": 1.37e-05,
        "meta_mean_motion_ddot": 0,
        "tle_line1": "1 33942U 93036EX  25340.54802260  .00001370  00000+0  46065-3 0  9997",
        "tle_line2": "2 33942  74.0362 286.2316 0020036  10.8302 111.6611 14.37974069880450"
      },
      "geometry": {
        "type": "Point",
        "coordinates": [
          -51.87258170555102,
          53.80198578162869
        ]
      }
    },
    {
      "type": "Feature",
      "properties": {
        "norad_id": 33944,
        "name": "COSMOS 2251 DEB",
        "group": "cosmos-2251-debris",
        "lat": -53.52586831901839,
        "lon": -63.58454519541858,
        "alt_km": 809.5785962706204,
        "timestamp": "2025-12-07T03:52:32.895639+00:00",
        "meta_object_name": "COSMOS 2251 DEB",
        "meta_object_id": "1993-036EZ",
        "meta_epoch": "2025-12-05T23:59:44.079072",
        "meta_mean_motion": 14.37320441,
        "meta_eccentricity": 0.01119666,
        "meta_inclination": 74.04,
        "meta_ra_of_asc_node": 321.3265,
        "meta_arg_of_pericenter": 62.7047,
        "meta_mean_anomaly": 353.2393,
        "meta_ephemeris_type": 0,
        "meta_classification_type": "U",
        "meta_norad_cat_id": 33944,
        "meta_element_set_no": 999,
        "meta_rev_at_epoch": 87931,
        "meta_bstar": 0.00052859209,
        "meta_mean_motion_dot": 1.669e-05,
        "meta_mean_motion_ddot": 0,
        "tle_line1": "1 33944U 93036EZ  25339.99981573  .00001669  00000+0  52859-3 0  9990",
        "tle_line2": "2 33944  74.0400 321.3265 0111966  62.7047 353.2393 14.37320441879317"
      },
      "geometry": {
        "type": "Point",
        "coordinates": [
          -63.58454519541858,
          -53.52586831901839
        ]
      }
    },
    {
      "type": "Feature",
      "properties": {
        "norad_id": 33945,
        "name": "COSMOS 2251 DEB",
        "group": "cosmos-2251-debris",
        "lat": 26.34526369251059,
        "lon": 128.33663621433575,
        "alt_km": 779.8117043279308,
        "timestamp": "2025-12-07T03:52:32.895649+00:00",
        "meta_object_name": "COSMOS 2251 DEB",
        "meta_object_id": "1993-036FA",
        "meta_epoch": "2025-12-06T08:45:35.653536",
        "meta_mean_motion": 14.34592888,
        "meta_eccentricity": 0.00216586,
        "meta_inclination": 74.0294,
        "meta_ra_of_asc_node": 317.9485,
        "meta_arg_of_pericenter": 46.2435,
        "meta_mean_anomaly": 314.0504,
        "meta_ephemeris_type": 0,
        "meta_classification_type": "U",
        "meta_norad_cat_id": 33945,
        "meta_element_set_no": 999,
        "meta_rev_at_epoch": 87924,
        "meta_bstar": 0.00026713859,
        "meta_mean_motion_dot": 7.31e-06,
        "meta_mean_motion_ddot": 0,
        "tle_line1": "1 33945U 93036FA  25340.36499599  .00000731  00000+0  26714-3 0  9996",
        "tle_line2": "2 33945  74.0294 317.9485 0021658  46.2435 314.0504 14.34592888879244"
      },
      "geometry": {
        "type": "Point",
        "coordinates": [
          128.33663621433575,
          26.34526369251059
        ]
      }
    },
    {
      "type": "Feature",
      "properties": {
        "norad_id": 33948,
        "name": "COSMOS 2251 DEB",
        "group": "cosmos-2251-debris",
        "lat": -18.993491707152785,
        "lon": -50.28474890859131,
        "alt_km": 767.9189258246033,
        "timestamp": "2025-12-07T03:52:32.895659+00:00",
        "meta_object_name": "COSMOS 2251 DEB",
        "meta_object_id": "1993-036FD",
        "meta_epoch": "2025-12-06T09:34:14.837376",
        "meta_mean_motion": 14.35617694,
        "meta_eccentricity": 0.00224632,
        "meta_inclination": 74.0351,
        "meta_ra_of_asc_node": 316.7688,
        "meta_arg_of_pericenter": 34.3779,
        "meta_mean_anomaly": 325.8821,
        "meta_ephemeris_type": 0,
        "meta_classification_type": "U",
        "meta_norad_cat_id": 33948,
        "meta_element_set_no": 999,
        "meta_rev_at_epoch": 87932,
        "meta_bstar": 0.00038336589,
        "meta_mean_motion_dot": 1.083e-05,
        "meta_mean_motion_ddot": 0,
        "tle_line1": "1 33948U 93036FD  25340.39878284  .00001083  00000+0  38337-3 0  9999",
        "tle_line2": "2 33948  74.0351 316.7688 0022463  34.3779 325.8821 14.35617694879322"
      },
      "geometry": {
        "type": "Point",
        "coordinates": [
          -50.28474890859131,
          -18.993491707152785
        ]
      }
    },
    {
      "type": "Feature",
      "properties": {
        "norad_id": 33971,
        "name": "COSMOS 2251 DEB",
        "group": "cosmos-2251-debris",
        "lat": -32.528982339098455,
        "lon": -106.48462477700501,
        "alt_km": 755.1303440553656,
        "timestamp": "2025-12-07T03:52:32.895670+00:00",
        "meta_object_name": "COSMOS 2251 DEB",
        "meta_object_id": "1993-036FE",
        "meta_epoch": "2025-12-06T11:54:35.179200",
        "meta_mean_motion": 14.39707639,
        "meta_eccentricity": 0.00182451,
        "meta_inclination": 74.025,
        "meta_ra_of_asc_node": 265.2713,
        "meta_arg_of_pericenter": 6.8813,
        "meta_mean_anomaly": 112.7657,
        "meta_ephemeris_type": 0,
        "meta_classification_type": "U",
        "meta_norad_cat_id": 33971,
        "meta_element_set_no": 999,
        "meta_rev_at_epoch": 88049,
        "meta_bstar": 0.00060468696,
        "meta_mean_motion_dot": 1.871e-05,
        "meta_mean_motion_ddot": 0,
        "tle_line1": "1 33971U 93036FE  25340.49624050  .00001871  00000+0  60469-3 0  9992",
        "tle_line2": "2 33971  74.0250 265.2713 0018245   6.8813 112.7657 14.39707639880492"
      },
      "geometry": {
        "type": "Point",
        "coordinates": [
          -106.48462477700501,
          -32.528982339098455
        ]
      }
    }
  ]
}